[{"OBJECT_NAME":"STARLINK-4481","OBJECT_ID":"2022-097AG","EPOCH":"2026-03-09T12:22:15.289536","MEAN_MOTION":15.08837796,"ECCENTRICITY":0.00014309,"INCLINATION":53.2168,"RA_OF_ASC_NODE":104.4686,"ARG_OF_PERICENTER":92.9605,"MEAN_ANOMALY":267.1551,"EPHEMERIS_TYPE":0,"CLASSIFICATION_TYPE":"U","NORAD_CAT_ID":53418,"ELEMENT_SET_NO":999,"REV_AT_EPOCH":19877,"BSTAR":1.4640943e-5,"MEAN_MOTION_DOT":-5.5e-7,"MEAN_MOTION_DDOT":0},{"OBJECT_NAME":"CZ-6A DEB","OBJECT_ID":"2022-151VT","EPOCH":"2026-03-09T17:17:01.578624","MEAN_MOTION":15.13055612,"ECCENTRICITY":0.00307053,"INCLINATION":98.6048,"RA_OF_ASC_NODE":145.9599,"ARG_OF_PERICENTER":176.0049,"MEAN_ANOMALY":184.143,"EPHEMERIS_TYPE":0,"CLASSIFICATION_TYPE":"U","NORAD_CAT_ID":55202,"ELEMENT_SET_NO":999,"REV_AT_EPOCH":17179,"BSTAR":0.0062201193,"MEAN_MOTION_DOT":0.00112789,"MEAN_MOTION_DDOT":0}]
